OBJECT_NAME,OBJECT_ID,EPOCH,MEAN_MOTION,ECCENTRICITY,INCLINATION,RA_OF_ASC_NODE,ARG_OF_PERICENTER,MEAN_ANOMALY,EPHEMERIS_TYPE,CLASSIFICATION_TYPE,NORAD_CAT_ID,ELEMENT_SET_NO,REV_AT_EPOCH,BSTAR,MEAN_MOTION_DOT,MEAN_MOTION_DDOT
DUBAISAT-1,2009-041B,2026-07-05T03:10:20.557632,14.75156080,.0010708,98.0074,319.1955,20.7861,339.3782,0,U,35682,999,90774,.18949315E-3,.1229E-4,0
OCEANSAT-2,2009-051A,2026-07-05T06:51:07.606944,13.99658298,.00166704,98.2318,171.3303,182.2971,177.8122,0,U,35931,999,88186,-.11156688E-3,-.201E-5,0
WORLDVIEW-2 (WV-2),2009-055A,2026-07-05T04:28:38.647488,14.37905187,.00048327,98.4760,259.3905,154.8241,205.3182,0,U,35946,999,87823,.77644481E-4,.191E-5,0
SMOS,2009-059A,2026-07-04T23:31:42.056832,14.39782982,.00012986,98.4428,13.0547,86.5552,273.5784,0,U,36036,999,87601,.12669296E-3,.354E-5,0
YAOGAN-7,2009-069A,2026-07-04T10:04:25.391712,14.78027757,.00242897,98.0049,71.1787,347.1078,12.9509,0,U,36110,999,89217,.89957282E-4,.599E-5,0
TANDEM-X,2010-030A,2026-07-04T10:46:52.536288,15.19148557,.0001666,97.4453,192.9091,88.7916,271.3510,0,U,36605,999,88926,.31545974E-4,.595E-5,0
CARTOSAT-2B,2010-035A,2026-07-05T06:32:08.688192,14.78607360,.0012262,97.9938,236.7063,127.9443,232.2878,0,U,36795,999,86252,.72671929E-4,.48E-5,0
YAOGAN-10,2010-038A,2026-07-05T08:04:42.229632,14.85410572,.00016169,97.8967,209.5965,86.8708,329.8715,0,U,36834,999,85990,.58091283E-3,.4952E-4,0
COSMO-SKYMED 4,2010-060A,2026-07-05T08:01:00.479712,14.82159994,.00014598,97.8890,9.6701,86.8558,273.2823,0,U,37216,999,84725,.67635578E-4,.486E-5,0
RESOURCESAT-2,2011-015A,2026-07-05T05:56:48.813216,14.21604608,.00109971,98.7636,253.5642,199.5943,160.4813,0,U,37387,999,78874,.82915391E-4,.138E-5,0
HAIYANG-2A,2011-043A,2026-07-05T07:32:45.279744,13.73781652,.00041622,99.3396,188.5812,56.7588,303.3959,0,U,37781,999,74914,.33015119E-3,.265E-5,0
RASAT,2011-044D,2026-07-05T07:29:06.572832,14.68185840,.00215494,98.0580,277.4326,132.2942,319.9162,0,U,37791,999,79584,.15092728E-3,.822E-5,0
SRMSAT,2011-058D,2026-07-04T16:11:13.217856,14.11579530,.00118514,19.9730,313.6268,36.6009,351.4175,0,U,37841,999,76029,.85792093E-4,.423E-5,0
PLEIADES 1A,2011-076F,2026-07-05T07:27:15.018336,14.58542563,.00017587,98.1969,261.1698,85.9726,3.9113,0,U,38012,999,77463,.78614043E-4,.32E-5,0
ZIYUAN 1-02C (ZY 1-02C),2011-079A,2026-07-05T07:23:38.124096,14.38229962,.00051622,98.4061,253.2378,250.0414,197.8672,0,U,38038,999,76181,.18254177E-3,.512E-5,0
ARIRANG-3 (KOMPSAT-3),2012-025B,2026-07-05T07:17:09.263616,14.62223065,.0006684,98.1179,143.4518,64.2855,295.9036,0,U,38338,999,75399,.11278369E-3,.522E-5,0
EXACTVIEW-1 (ADS-1B),2012-039C,2026-07-04T19:04:22.189728,14.24990346,.00118571,98.9797,303.5843,118.7722,241.4649,0,U,38709,999,72521,.10412996E-3,.197E-5,0
SPOT 6,2012-047A,2026-07-05T07:24:40.997376,14.58534759,.00012104,98.2109,253.4054,78.9033,281.2302,0,U,38755,999,73569,.13028879E-3,.56E-5,0
PLEIADES 1B,2012-068A,2026-07-05T07:51:31.464864,14.58572726,.00016847,98.1940,261.1294,83.3391,276.8000,0,U,39019,999,72349,.12237629E-3,.523E-5,0
GOKTURK 2,2012-073A,2026-07-05T07:44:14.425152,14.75562142,.00009557,97.6810,22.8436,69.6739,290.4574,0,U,39030,999,72718,.1189288E-3,.763E-5,0
LANDSAT 8,2013-008A,2026-07-05T03:41:13.566336,14.57107513,.00013536,98.2294,256.0749,93.7693,266.3660,0,U,39084,999,70051,.11003015E-3,.45E-5,0
SARAL,2013-009A,2026-07-05T06:23:56.985792,14.32893557,.00010765,98.5554,12.6052,196.4892,163.6257,0,U,39086,999,69819,-.1525725E-5,-.48E-6,0
GAOFEN-1,2013-018A,2026-07-05T07:01:07.812192,14.76510902,.00162195,97.9086,257.9924,203.6416,156.4051,0,U,39150,999,71091,.14032087E-3,.929E-5,0
VNREDSAT 1,2013-021B,2026-07-05T06:12:21.881376,14.64876774,.00016867,97.9065,238.9810,82.7794,277.3601,0,U,39160,999,70293,.14521644E-3,.731E-5,0
ARIRANG-5 (KOMPSAT-5),2013-042A,2026-07-05T07:44:55.034016,15.04553556,.00053295,97.6210,12.7670,79.2497,280.9329,0,U,39227,999,70658,.14334983E-3,.1949E-4,0
SKYSAT-A,2013-066C,2026-07-04T17:12:25.648992,15.13074898,.0019755,97.3799,234.5557,251.9320,107.9760,0,U,39418,999,69113,.22797664E-3,.3987E-4,0
DUBAISAT-2,2013-066D,2026-07-05T06:59:23.549856,15.10333475,.00102355,97.4579,175.9630,341.6778,18.4081,0,U,39419,999,68912,.65655634E-3,.10724E-3,0
GPM-CORE,2014-009C,2026-07-05T03:25:07.842432,15.44961049,.00111952,64.9704,247.9773,258.6591,101.3292,0,U,39574,999,70058,.36109276E-3,.16924E-3,0
SENTINEL-1A,2014-016A,2026-07-05T06:21:03.487680,14.59200220,.00013793,98.1778,193.5337,86.0922,274.0435,0,U,39634,999,65265,.25978629E-4,.77E-6,0
KAZEOSAT 1,2014-024A,2026-07-05T13:08:15.542304,14.42034855,.0001265,98.3204,258.5383,87.7027,272.4308,0,U,39731,999,64120,.71149E-4,.191E-5,0
