DUBAISAT-1              
1 35682U 09041B   26186.13218238  .00001229  00000+0  18949-3 0  9996
2 35682  98.0074 319.1955 0010708  20.7861 339.3782 14.75156080907746
OCEANSAT-2              
1 35931U 09051A   26186.28550471 -.00000201  00000+0 -11157-3 0  9993
2 35931  98.2318 171.3303 0016670 182.2971 177.8122 13.99658298881861
WORLDVIEW-2 (WV-2)      
1 35946U 09055A   26186.18655842  .00000191  00000+0  77644-4 0  9990
2 35946  98.4760 259.3905 0004832 154.8241 205.3182 14.37905187878232
SMOS                    
1 36036U 09059A   26185.98034788  .00000354  00000+0  12669-3 0  9998
2 36036  98.4428  13.0547 0001298  86.5552 273.5784 14.39782982876017
YAOGAN-7                
1 36110U 09069A   26185.41973833  .00000599  00000+0  89957-4 0  9999
2 36110  98.0049  71.1787 0024289 347.1078  12.9509 14.78027757892170
TANDEM-X                
1 36605U 10030A   26185.44921917  .00000595  00000+0  31546-4 0  9994
2 36605  97.4453 192.9091 0001666  88.7916 271.3510 15.19148557889261
CARTOSAT-2B             
1 36795U 10035A   26186.27232278  .00000480  00000+0  72672-4 0  9994
2 36795  97.9938 236.7063 0012262 127.9443 232.2878 14.78607360862524
YAOGAN-10               
1 36834U 10038A   26186.33659988  .00004952  00000+0  58091-3 0  9995
2 36834  97.8967 209.5965 0001616  86.8708 329.8715 14.85410572859902
COSMO-SKYMED 4          
1 37216U 10060A   26186.33403333  .00000486  00000+0  67636-4 0  9990
2 37216  97.8890   9.6701 0001459  86.8558 273.2823 14.82159994847259
RESOURCESAT-2           
1 37387U 11015A   26186.24778719  .00000138  00000+0  82915-4 0  9994
2 37387  98.7636 253.5642 0010997 199.5943 160.4813 14.21604608788741
HAIYANG-2A              
1 37781U 11043A   26186.31441296  .00000265  00000+0  33015-3 0  9995
2 37781  99.3396 188.5812 0004162  56.7588 303.3959 13.73781652749142
RASAT                   
1 37791U 11044D   26186.31188163  .00000822  00000+0  15093-3 0  9993
2 37791  98.0580 277.4326 0021549 132.2942 319.9162 14.68185840795843
SRMSAT                  
1 37841U 11058D   26185.67445854  .00000423  00000+0  85792-4 0  9996
2 37841  19.9730 313.6268 0011851  36.6009 351.4175 14.11579530760299
PLEIADES 1A             
1 38012U 11076F   26186.31059049  .00000320  00000+0  78614-4 0  9997
2 38012  98.1969 261.1698 0001758  85.9726   3.9113 14.58542563774636
ZIYUAN 1-02C (ZY 1-02C) 
1 38038U 11079A   26186.30808014  .00000512  00000+0  18254-3 0  9997
2 38038  98.4061 253.2378 0005162 250.0414 197.8672 14.38229962761811
ARIRANG-3 (KOMPSAT-3)   
1 38338U 12025B   26186.30357944  .00000522  00000+0  11278-3 0  9993
2 38338  98.1179 143.4518 0006684  64.2855 295.9036 14.62223065753990
EXACTVIEW-1 (ADS-1B)    
1 38709U 12039C   26185.79470127  .00000197  00000+0  10413-3 0  9999
2 38709  98.9797 303.5843 0011857 118.7722 241.4649 14.24990346725213
SPOT 6                  
1 38755U 12047A   26186.30880784  .00000560  00000+0  13029-3 0  9991
2 38755  98.2109 253.4054 0001210  78.9033 281.2302 14.58534759735695
PLEIADES 1B             
1 39019U 12068A   26186.32744751  .00000523  00000+0  12238-3 0  9993
2 39019  98.1940 261.1294 0001684  83.3391 276.8000 14.58572726723491
GOKTURK 2               
1 39030U 12073A   26186.32238918  .00000763  00000+0  11893-3 0  9997
2 39030  97.6810  22.8436 0000955  69.6739 290.4574 14.75562142727185
LANDSAT 8               
1 39084U 13008A   26186.15362924  .00000450  00000+0  11003-3 0  9997
2 39084  98.2294 256.0749 0001353  93.7693 266.3660 14.57107513700518
SARAL                   
1 39086U 13009A   26186.26663178 -.00000048  00000+0 -15257-5 0  9999
2 39086  98.5554  12.6052 0001076 196.4892 163.6257 14.32893557698193
GAOFEN-1                
1 39150U 13018A   26186.29245153  .00000929  00000+0  14032-3 0  9997
2 39150  97.9086 257.9924 0016219 203.6416 156.4051 14.76510902710913
VNREDSAT 1              
1 39160U 13021B   26186.25858659  .00000731  00000+0  14522-3 0  9994
2 39160  97.9065 238.9810 0001686  82.7794 277.3601 14.64876774702937
ARIRANG-5 (KOMPSAT-5)   
1 39227U 13042A   26186.32285919  .00001949  00000+0  14335-3 0  9996
2 39227  97.6210  12.7670 0005329  79.2497 280.9329 15.04553556706588
SKYSAT-A                
1 39418U 13066C   26185.71696353  .00003987  00000+0  22798-3 0  9990
2 39418  97.3799 234.5557 0019755 251.9320 107.9760 15.13074898691137
DUBAISAT-2              
1 39419U 13066D   26186.29124479  .00010724  00000+0  65656-3 0  9997
2 39419  97.4579 175.9630 0010235 341.6778  18.4081 15.10333475689127
GPM-CORE                
1 39574U 14009C   26186.14245188  .00016924  00000+0  36109-3 0  9991
2 39574  64.9704 247.9773 0011195 258.6591 101.3292 15.44961049700583
SENTINEL-1A             
1 39634U 14016A   26186.26462370  .00000077  00000+0  25979-4 0  9999
2 39634  98.1778 193.5337 0001379  86.0922 274.0435 14.59200220652659
KAZEOSAT 1              
1 39731U 14024A   26186.54740211  .00000191  00000+0  71149-4 0  9997
2 39731  98.3204 258.5383 0001265  87.7027 272.4308 14.42034855641205
